NORAD_CAT_ID,OBJECT_NAME,OBJECT_TYPE,EPOCH,MEAN_MOTION,ECCENTRICITY,INCLINATION,RA_OF_ASC_NODE,ARG_OF_PERICENTER,MEAN_ANOMALY,BSTAR,MEAN_MOTION_DOT,MEAN_MOTION_DDOT,TLE_LINE0,TLE_LINE1,TLE_LINE2,SEMIMAJOR_AXIS,PERIOD,APOGEE,PERIGEE,DECAYED
53899.0,STARLINK-5042,PAYLOAD,2023-05-03 05:37:34,15.0884836,0.0001261,53.2184,319.1536,94.8449,265.2687,0.00012506,1.703e-05,0.0,0 STARLINK-5042,1 53899U 22119P   23123.23442372  .00001703  00000-0  12506-3 0  9995,2 53899  53.2184 319.1536 0001261  94.8449 265.2687 15.08848360 34045,6917.855,95.437,540.592,538.847,0.0
53899.0,STARLINK-5042,PAYLOAD,2023-05-03 16:46:03,15.08174357,0.0009497,53.2179,317.0753,109.7724,250.4293,-0.0058298,-0.00090363,0.0,0 STARLINK-5042,1 53899U 22119P   23123.69865593 -.00090363  00000-0 -58298-2 0  9998,2 53899  53.2179 317.0753 0009497 109.7724 250.4293 15.08174357 34113,6919.916,95.48,548.353,535.209,0.0
53899.0,STARLINK-5042,PAYLOAD,2023-05-04 06:00:00,15.08829561,8.32e-05,53.2159,314.5952,90.1513,29.4161,-0.00015342,-2.728e-05,0.0,0 STARLINK-5042,1 53899U 22119P   23124.25001157 -.00002728  00000-0 -15342-3 0  9991,2 53899  53.2159 314.5952 0000832  90.1513  29.4161 15.08829561 34197,6917.912,95.438,540.353,539.202,0.0
53899.0,STARLINK-5042,PAYLOAD,2023-05-04 13:25:18,15.08833821,0.0001042,53.2178,313.207,91.1635,268.9476,7.9377e-05,9.76e-06,0.0,0 STARLINK-5042,1 53899U 22119P   23124.55923788  .00000976  00000-0  79377-4 0  9997,2 53899  53.2178 313.2070 0001042  91.1635 268.9476 15.08833821 34660,6917.899,95.438,540.485,539.043,0.0
53899.0,STARLINK-5042,PAYLOAD,2023-05-04 19:46:50,15.08844503,9.77e-05,53.2173,312.0178,94.7405,265.3699,6.219e-05,7.02e-06,0.0,0 STARLINK-5042,1 53899U 22119P   23124.82419141  .00000702  00000-0  62190-4 0  9992,2 53899  53.2173 312.0178 0000977  94.7405 265.3699 15.08844503 34703,6917.867,95.437,540.408,539.056,0.0
53899.0,STARLINK-5042,PAYLOAD,2023-05-05 00:32:59,15.08845958,0.0001018,53.2163,311.1254,88.4514,271.6594,0.00010641,1.406e-05,0.0,0 STARLINK-5042,1 53899U 22119P   23125.02290856  .00001406  00000-0  10641-3 0  9990,2 53899  53.2163 311.1254 0001018  88.4514 271.6594 15.08845958 34311,6917.862,95.437,540.431,539.023,0.0
53899.0,STARLINK-5042,PAYLOAD,2023-05-05 11:40:42,15.08834342,0.00016,53.2159,309.0442,80.2242,279.893,-8.7873e-05,-1.686e-05,0.0,0 STARLINK-5042,1 53899U 22119P   23125.48660043 -.00001686  00000-0 -87873-4 0  9993,2 53899  53.2159 309.0442 0001600  80.2242 279.8930 15.08834342 34382,6917.898,95.438,540.87,538.656,0.0
53899.0,STARLINK-5042,PAYLOAD,2023-05-05 19:37:48,15.08668939,0.0005666,53.2159,307.5598,102.3967,257.766,0.0054176,0.00086609,0.0,0 STARLINK-5042,1 53899U 22119P   23125.81791808  .00086609  00000-0  54176-2 0  9998,2 53899  53.2159 307.5598 0005666 102.3967 257.7660 15.08668939 34431,6918.403,95.448,544.188,536.348,0.0
53899.0,STARLINK-5042,PAYLOAD,2023-05-06 06:00:00,15.08830711,8.95e-05,53.2152,305.6161,93.9102,95.1995,0.00082147,0.00012807,0.0,0 STARLINK-5042,1 53899U 22119P   23126.25001157  .00012807  00000-0  82147-3 0  9997,2 53899  53.2152 305.6161 0000895  93.9102  95.1995 15.08830711 34494,6917.909,95.438,540.393,539.155,0.0
53899.0,STARLINK-5042,PAYLOAD,2023-05-06 11:31:28,15.08842923,8.03e-05,53.2157,304.5828,89.6337,270.4747,0.00025093,3.708e-05,0.0,0 STARLINK-5042,1 53899U 22119P   23126.48019554  .00003708  00000-0  25093-3 0  9999,2 53899  53.2157 304.5828 0000803  89.6337 270.4747 15.08842923 34950,6917.871,95.437,540.292,539.181,0.0
53899.0,STARLINK-5042,PAYLOAD,2023-05-06 17:53:01,15.08856581,8.44e-05,53.2152,303.3935,89.0364,271.0725,0.0007887,0.00012292,0.0,0 STARLINK-5042,1 53899U 22119P   23126.74515249  .00012292  00000-0  78870-3 0  9999,2 53899  53.2152 303.3935 0000844  89.0364 271.0725 15.08856581 34576,6917.83,95.437,540.279,539.111,0.0
53899.0,STARLINK-5042,PAYLOAD,2023-05-07 06:00:00,15.08810507,9.02e-05,53.2154,301.1265,67.3336,156.5724,0.0019391,0.00030683,0.0,0 STARLINK-5042,1 53899U 22119P   23127.25001157  .00030683  00000-0  19391-2 0  9990,2 53899  53.2154 301.1265 0000902  67.3336 156.5724 15.08810507 34645,6917.971,95.439,540.46,539.212,0.0
53899.0,STARLINK-5042,PAYLOAD,2023-05-07 14:00:01,15.08848781,9.71e-05,53.2155,299.6303,77.094,158.3715,-0.00029627,-5.001e-05,0.0,0 STARLINK-5042,1 53899U 22119P   23127.58334491 -.00005001  00000-0 -29627-3 0  9998,2 53899  53.2155 299.6303 0000971  77.0940 158.3715 15.08848781  1307,6917.854,95.437,540.39,539.047,0.0
53899.0,STARLINK-5042,PAYLOAD,2023-05-07 22:00:00,15.0881256,0.0001102,53.2157,298.1353,61.6586,185.4346,0.0016988,0.00026831,0.0,0 STARLINK-5042,1 53899U 22119P   23127.91667824  .00026831  00000-0  16988-2 0  9991,2 53899  53.2157 298.1353 0001102  61.6586 185.4346 15.08812560  1307,6917.964,95.439,540.592,539.067,0.0
53899.0,STARLINK-5042,PAYLOAD,2023-05-08 04:51:30,15.0884554,0.0001028,53.2147,296.8534,53.0053,307.1033,0.00087094,0.00013602,0.0,0 STARLINK-5042,1 53899U 22119P   23128.20243813  .00013602  00000-0  87094-3 0  9991,2 53899  53.2147 296.8534 0001028  53.0053 307.1033 15.08845540 34792,6917.863,95.437,540.44,539.017,0.0
53899.0,STARLINK-5042,PAYLOAD,2023-05-08 17:34:35,15.08846538,0.0001118,53.2155,294.4704,80.6131,279.4987,0.0004558,6.975e-05,0.0,0 STARLINK-5042,1 53899U 22119P   23128.73235748  .00006975  00000-0  45580-3 0  9996,2 53899  53.2155 294.4704 0001118  80.6131 279.4987 15.08846538 34873,6917.86,95.437,540.499,538.952,0.0
53899.0,STARLINK-5042,PAYLOAD,2023-05-08 20:45:21,15.08854344,0.0001116,53.2157,293.8771,74.2521,285.8594,0.00050702,7.794e-05,0.0,0 STARLINK-5042,1 53899U 22119P   23128.86483471  .00007794  00000-0  50702-3 0  9990,2 53899  53.2157 293.8771 0001116  74.2521 285.8594 15.08854344 35311,6917.837,95.437,540.474,538.93,0.0
53899.0,STARLINK-5042,PAYLOAD,2023-05-09 14:14:36,15.0884573,0.0001139,53.2157,290.6062,65.7338,294.3773,0.00028262,4.214e-05,0.0,0 STARLINK-5042,1 53899U 22119P   23129.59347812  .00004214  00000-0  28262-3 0  9999,2 53899  53.2157 290.6062 0001139  65.7338 294.3773 15.08845730 35420,6917.863,95.437,540.516,538.94,0.0
53899.0,STARLINK-5042,PAYLOAD,2023-05-09 22:11:31,15.08855093,0.0001021,53.216,289.1193,74.0959,286.0146,0.00042529,6.49e-05,0.0,0 STARLINK-5042,1 53899U 22119P   23129.92467334  .00006490  00000-0  42529-3 0  9998,2 53899  53.2160 289.1193 0001021  74.0959 286.0146 15.08855093 35474,6917.834,95.437,540.406,538.993,0.0
53899.0,STARLINK-5042,PAYLOAD,2023-05-10 17:16:09,15.08842964,6.33e-05,53.2169,285.5525,60.185,299.9205,0.00027213,4.046e-05,0.0,0 STARLINK-5042,1 53899U 22119P   23130.71955700  .00004046  00000-0  27213-3 0  9994,2 53899  53.2169 285.5525 0000633  60.1850 299.9205 15.08842964 35175,6917.871,95.437,540.174,539.298,0.0
53899.0,STARLINK-5042,PAYLOAD,2023-05-11 02:48:28,15.08848162,9.63e-05,53.2158,283.7692,82.4199,277.6903,0.00047784,7.327e-05,0.0,0 STARLINK-5042,1 53899U 22119P   23131.11699600  .00007327  00000-0  47784-3 0  9993,2 53899  53.2158 283.7692 0000963  82.4199 277.6903 15.08848162 35654,6917.855,95.437,540.387,539.054,0.0
53899.0,STARLINK-5042,PAYLOAD,2023-05-11 17:06:56,15.08840095,0.0001198,53.2161,281.0934,97.7209,262.392,0.00026499,3.932e-05,0.0,0 STARLINK-5042,1 53899U 22119P   23131.71315794  .00003932  00000-0  26499-3 0  9996,2 53899  53.2161 281.0934 0001198  97.7209 262.3920 15.08840095 35321,6917.88,95.438,540.574,538.916,0.0
53899.0,STARLINK-5042,PAYLOAD,2023-05-12 02:39:15,15.08835274,0.0001172,53.2158,279.3092,99.057,261.0555,0.00023715,3.488e-05,0.0,0 STARLINK-5042,1 53899U 22119P   23132.11060136  .00003488  00000-0  23715-3 0  9992,2 53899  53.2158 279.3092 0001172  99.0570 261.0555 15.08835274 35806,6917.895,95.438,540.571,538.949,0.0
53899.0,STARLINK-5042,PAYLOAD,2023-05-12 16:57:44,15.08841384,0.0001195,53.2161,276.6334,103.9483,256.1643,0.0001893,2.726e-05,0.0,0 STARLINK-5042,1 53899U 22119P   23132.70676159  .00002726  00000-0  18930-3 0  9992,2 53899  53.2161 276.6334 0001195 103.9483 256.1643 15.08841384 35477,6917.876,95.437,540.568,538.914,0.0
53899.0,STARLINK-5042,PAYLOAD,2023-05-13 13:37:45,15.0884338,0.0001533,53.2156,272.7671,84.1603,275.9563,0.00022625,3.315e-05,0.0,0 STARLINK-5042,1 53899U 22119P   23133.56788257  .00003315  00000-0  22625-3 0  9991,2 53899  53.2156 272.7671 0001533  84.1603 275.9563 15.08843380 36022,6917.87,95.437,540.796,538.675,0.0
53899.0,STARLINK-5042,PAYLOAD,2023-05-13 16:48:31,15.08845582,0.0001193,53.2156,272.172,83.5772,276.5356,0.00024589,3.628e-05,0.0,0 STARLINK-5042,1 53899U 22119P   23133.70036094  .00003628  00000-0  24589-3 0  9990,2 53899  53.2156 272.1720 0001193  83.5772 276.5356 15.08845582 36048,6917.863,95.437,540.554,538.903,0.0
53899.0,STARLINK-5042,PAYLOAD,2023-05-14 02:20:50,15.08842514,0.0001135,53.216,270.3869,81.0692,279.0429,0.00015179,2.129e-05,0.0,0 STARLINK-5042,1 53899U 22119P   23134.09780172  .00002129  00000-0  15179-3 0  9996,2 53899  53.2160 270.3869 0001135  81.0692 279.0429 15.08842514 35687,6917.873,95.437,540.523,538.953,0.0
53899.0,STARLINK-5042,PAYLOAD,2023-05-14 13:28:32,15.08837189,0.0001269,53.2162,268.3024,84.1658,275.9478,2.6244e-05,1.3e-06,0.0,0 STARLINK-5042,1 53899U 22119P   23134.56148433  .00000130  00000-0  26244-4 0  9992,2 53899  53.2162 268.3024 0001269  84.1658 275.9478 15.08837189 36179,6917.889,95.438,540.632,538.876,0.0
53899.0,STARLINK-5042,PAYLOAD,2023-05-14 16:39:18,15.0883982,0.0001287,53.2156,267.7103,79.8219,280.2918,5.8271e-05,6.4e-06,0.0,0 STARLINK-5042,1 53899U 22119P   23134.69396436  .00000640  00000-0  58271-4 0  9995,2 53899  53.2156 267.7103 0001287  79.8219 280.2918 15.08839820 36191,6917.881,95.438,540.636,538.856,0.0
53899.0,STARLINK-5042,PAYLOAD,2023-05-15 02:11:37,15.08840371,0.0001322,53.2155,265.9276,77.9128,282.2013,9.6999e-05,1.256e-05,0.0,0 STARLINK-5042,1 53899U 22119P   23135.09140520  .00001256  00000-0  96999-4 0  9994,2 53899  53.2155 265.9276 0001322  77.9128 282.2013 15.08840371 35830,6917.879,95.438,540.659,538.83,0.0
